{
    "links": {
        "self": "http://www.neowsapp.com/rest/v1/neo/3384181?api_key=iIulBulltgU6a56xZRHN4H3l9WmuAYTsLGpBGhQ2"
    },
    "id": "3384181",
    "neo_reference_id": "3384181",
    "name": "(2007 RP12)",
    "designation": "2007 RP12",
    "nasa_jpl_url": "http://ssd.jpl.nasa.gov/sbdb.cgi?sstr=3384181",
    "absolute_magnitude_h": 24.6,
    "estimated_diameter": {
        "kilometers": {
            "estimated_diameter_min": 0.0319561887,
            "estimated_diameter_max": 0.0714562102
        },
        "meters": {
            "estimated_diameter_min": 31.9561886721,
            "estimated_diameter_max": 71.4562101727
        },
        "miles": {
            "estimated_diameter_min": 0.0198566489,
            "estimated_diameter_max": 0.0444008168
        },
        "feet": {
            "estimated_diameter_min": 104.8431420431,
            "estimated_diameter_max": 234.436392583
        }
    },
    "is_potentially_hazardous_asteroid": false,
    "close_approach_data": [
        {
            "close_approach_date": "2007-09-18",
            "close_approach_date_full": "2007-Sep-18 03:34",
            "epoch_date_close_approach": 1190086440000,
            "relative_velocity": {
                "kilometers_per_second": "4.4413810586",
                "kilometers_per_hour": "15988.9718109982",
                "miles_per_hour": "9934.9252900061"
            },
            "miss_distance": {
                "astronomical": "0.1387672603",
                "lunar": "53.9804642567",
                "kilometers": "20759286.566615561",
                "miles": "12899222.5275983018"
            },
            "orbiting_body": "Earth"
        }
    ],
    "orbital_data": {
        "orbit_id": "14",
        "orbit_determination_date": "2017-04-06 09:06:05",
        "first_observation_date": "2007-09-11",
        "last_observation_date": "2007-11-02",
        "data_arc_in_days": 52,
        "observations_used": 52,
        "orbit_uncertainty": "7",
        "minimum_orbit_intersection": ".135425",
        "jupiter_tisserand_invariant": "3.435",
        "epoch_osculation": "2459000.5",
        "eccentricity": ".4987349708902377",
        "semi_major_axis": "2.272752934414466",
        "inclination": ".3180702769771521",
        "ascending_node_longitude": "17.4525742629273",
        "orbital_period": "1251.488224556078",
        "perihelion_distance": "1.139251565828565",
        "perihelion_argument": "340.2821113973206",
        "aphelion_distance": "3.406254303000368",
        "perihelion_time": "2459377.008512222118",
        "mean_anomaly": "251.6944948099359",
        "mean_motion": ".2876575208110307",
        "equinox": "J2000",
        "orbit_class": {
            "orbit_class_type": "AMO",
            "orbit_class_description": "Near-Earth asteroid orbits similar to that of 1221 Amor",
            "orbit_class_range": "1.017 AU < q (perihelion) < 1.3 AU"
        }
    },
    "is_sentry_object": false
}